{
  "norad_id": 52850,
  "name": "STARLINK-4187",
  "history": [
    {
      "epoch": "2026-03-28T21:28:03.866880Z",
      "apogee_km": 540.6841261507861,
      "perigee_km": 538.8002492903861,
      "latitude_deg": 1.096867308643819e-06,
      "longitude_deg": 159.94250410485733,
      "height_km": 540.6833895678649,
      "semi_major_axis_km": 6917.879187720586,
      "eccentricity": 0.00013616,
      "inclination_deg": 53.2172,
      "raan_deg": 308.267,
      "arg_perigee_deg": 92.7698,
      "mean_anomaly_deg": 267.345,
      "mean_motion_rev_day": 15.08840393
    }
  ]
}